STARLINK-36472          
1 67346U 26003N   26036.06906140  .00118878  00000+0  19988-2 0  9999
2 67346  42.9995  52.2757 0001267 257.2498 102.8221 15.50616899  3815
STARLINK-36420          
1 67347U 26003P   26036.06837510  .00156510  00000+0  26165-2 0  9994
2 67347  42.9988  52.2690 0001459 263.7620  96.3074 15.50623702  3821
STARLINK-36467          
1 67348U 26003Q   26036.32637657  .00161837  00000+0  27038-2 0  9992
2 67348  43.0010  50.7659 0001931 274.1056  85.9583 15.50620193  3866
STARLINK-36457          
1 67349U 26003R   26036.06803426  .00092368  00000+0  15583-2 0  9997
2 67349  42.9963  52.2678 0000408 234.2252 125.8571 15.50641746  3827
STARLINK-36475          
1 67350U 26003S   26036.06768947  .00164825  00000+0  27523-2 0  9992
2 67350  42.9990  52.2637 0001524 245.7232 114.3469 15.50622447  3825
STARLINK-36478          
1 67351U 26003T   26036.32500876  .00163671  00000+0  27350-2 0  9993
2 67351  43.0008  50.7541 0001518 267.7028  92.3658 15.50607046  3862
STARLINK-36479          
1 67352U 26003U   26036.06700384  .00113695  00000+0  19104-2 0  9990
2 67352  42.9967  52.2584 0000430 235.1681 124.9139 15.50657974  3822
STARLINK-36474          
1 67353U 26003V   26035.83334490 -.00090185  00000+0 -15471-2 0  9999
2 67353  42.9995  53.6200 0001188 253.9930 242.1176 15.50616681  5398
STARLINK-36448          
1 67354U 26003W   26036.32329329  .00155115  00000+0  25921-2 0  9994
2 67354  43.0023  50.7398 0002175 264.8464  95.2148 15.50640122  3862
STARLINK-36477          
1 67355U 26003X   26036.25956187  .00143870  00000+0  24090-2 0  9996
2 67355  42.9993  51.1226 0001313 269.5148  90.5561 15.50630013  3850
STARLINK-36429          
1 67356U 26003Y   26036.32363099  .00102320  00000+0  17246-2 0  9999
2 67356  42.9984  50.7421 0000806 246.3483 113.7293 15.50622001  3863
STARLINK-36456          
1 67357U 26003Z   26036.06528977  .00123518  00000+0  20726-2 0  9998
2 67357  42.9985  52.2440 0001135 265.8059  94.2671 15.50654524  3828
